STARLINK-1788
1 46689U 20073V   26061.16668981  .00118599  00000+0  14301-2 0  9998
2 46689  53.0439 255.2204 0003179 117.9423  25.1583 15.59919027  5913
STARLINK-1967
1 47568U 21009W   26061.16668981  .00116344  00000+0  14089-2 0  9994
2 47568  53.0463  41.6237 0005823  32.5829 141.7956 15.59803313  5964
STARLINK-1735
1 46565U 20070AK  26061.16668981  .00185112  00000+0  22410-2 0  9993
2 46565  53.0437 155.5878 0006394 172.0894  33.2114 15.59540784  5852
STARLINK-1882
1 46784U 20074AX  26060.94591926  .00137750  00000+0  16807-2 0  9997
2 46784  53.0540 312.6069 0008428  99.5005 260.6960 15.59497658296123
STARLINK-1962
1 47563U 21009R   26061.18013945  .00138261  00000+0  16884-2 0  9992
2 47563  53.0464  33.1793 0009491  46.5738 313.6062 15.59461934279973
STARLINK-1545
1 46156U 20057AR  26061.25002314  .00103786  00000+0  12792-2 0  9995
2 46156  53.0464 294.7155 0002375  65.2310 326.6499 15.59408150  5702
STARLINK-1784
1 46687U 20073T   26061.14435235  .00098610  00000+0  12201-2 0  9996
2 46687  53.0452 223.5218 0004706 216.7342 143.3347 15.59323064296726
STARLINK-1817
1 46715U 20073AX  26061.00002315  .00179707  00000+0  21980-2 0  9993
2 46715  53.0491 254.7866 0005596 188.4501  74.2201 15.59295589  5938
STARLINK-2114
1 47393U 21005AW  26061.16668981  .01201394  00000+0  14174-1 0  9991
2 47393  53.0471  20.7072 0001922  92.2680 277.5772 15.58333810  5949
